NORAD_CAT_ID,OBJECT_NAME,OBJECT_TYPE,EPOCH,MEAN_MOTION,ECCENTRICITY,INCLINATION,RA_OF_ASC_NODE,ARG_OF_PERICENTER,MEAN_ANOMALY,BSTAR,MEAN_MOTION_DOT,MEAN_MOTION_DDOT,TLE_LINE0,TLE_LINE1,TLE_LINE2,SEMIMAJOR_AXIS,PERIOD,APOGEE,PERIGEE,DECAYED
52880.0,STARLINK-4186,PAYLOAD,2022-12-30 13:20:35,15.08833004,0.0002479,53.2179,204.6094,37.3337,322.7827,4.2757e-05,3.92e-06,0.0,0 STARLINK-4186,1 52880U 22062BC  22364.55596635  .00000392  00000-0  42757-4 0  9999,2 52880  53.2179 204.6094 0002479  37.3337 322.7827 15.08833004 30663,6917.901999999999,95.438,541.482,538.052,0.0
52880.0,STARLINK-4186,PAYLOAD,2022-12-31 13:11:22,15.08837339,0.000262,53.2177,200.1491,38.3809,321.7369,0.00020093,2.911e-05,0.0,0 STARLINK-4186,1 52880U 22062BC  22365.54956502  .00002911  00000-0  20093-3 0  9999,2 52880  53.2177 200.1491 0002620  38.3809 321.7369 15.08837339 30324,6917.889,95.438,541.566,537.941,0.0
52880.0,STARLINK-4186,PAYLOAD,2022-12-31 19:32:54,15.08841551,0.0002631,53.2176,198.9597,38.9238,321.1943,0.00022921,3.362e-05,0.0,0 STARLINK-4186,1 52880U 22062BC  22365.81452322  .00003362  00000-0  22921-3 0  9993,2 52880  53.2176 198.9597 0002631  38.9238 321.1943 15.08841551 30859,6917.876,95.437,541.561,537.9209999999998,0.0
52880.0,STARLINK-4186,PAYLOAD,2023-01-01 06:40:37,15.0884415,0.0002683999999999,53.2167,196.8783,38.5788,321.5395,0.00022434,3.284e-05,0.0,0 STARLINK-4186,1 52880U 22062BC  23001.27820641  .00003284  00000-0  22434-3 0  9996,2 52880  53.2167 196.8783 0002684  38.5788 321.5395 15.08844150 30434,6917.868,95.437,541.589,537.876,0.0
52880.0,STARLINK-4186,PAYLOAD,2023-01-01 20:59:05,15.08837844,0.0002696,53.2168,194.2018,40.8877,319.2317,3.9853e-05,3.46e-06,0.0,0 STARLINK-4186,1 52880U 22062BC  23001.87437011  .00000346  00000-0  39853-4 0  9997,2 52880  53.2168 194.2018 0002696  40.8877 319.2317 15.08837844 30526,6917.887,95.438,541.617,537.887,0.0
52880.0,STARLINK-4186,PAYLOAD,2023-01-02 00:09:51,15.0883907,0.0002663999999999,53.2177,193.6071,40.9272,319.192,6.1035e-05,6.83e-06,0.0,0 STARLINK-4186,1 52880U 22062BC  23002.00684959  .00000683  00000-0  61035-4 0  9999,2 52880  53.2177 193.6071 0002664  40.9272 319.1920 15.08839070 31032,6917.8830000000025,95.438,541.591,537.905,0.0
52880.0,STARLINK-4186,PAYLOAD,2023-01-02 12:52:56,15.08843782,0.0002682,53.2176,191.2283,41.8468,318.2728,5.3124e-05,5.57e-06,0.0,0 STARLINK-4186,1 52880U 22062BC  23002.53676621  .00000557  00000-0  53124-4 0  9994,2 52880  53.2176 191.2283 0002682  41.8468 318.2728 15.08843782 30622,6917.869000000002,95.437,541.589,537.878,0.0
52880.0,STARLINK-4186,PAYLOAD,2023-01-02 20:49:52,15.08844467,0.0002702,53.2178,189.7417,41.6486,318.4712,4.7299e-05,4.64e-06,0.0,0 STARLINK-4186,1 52880U 22062BC  23002.86796446  .00000464  00000-0  47299-4 0  9991,2 52880  53.2178 189.7417 0002702  41.6486 318.4712 15.08844467 30677,6917.8669999999975,95.437,541.601,537.863,0.0
52880.0,STARLINK-4186,PAYLOAD,2023-01-03 04:46:47,15.08847885,0.000273,53.2181,188.2551,42.4018,317.7185,5.881e-05,6.48e-06,0.0,0 STARLINK-4186,1 52880U 22062BC  23003.19916149  .00000648  00000-0  58810-4 0  9997,2 52880  53.2181 188.2551 0002730  42.4018 317.7185 15.08847885 31219,6917.856,95.437,541.61,537.8330000000002,0.0
52880.0,STARLINK-4186,PAYLOAD,2023-01-03 12:43:43,15.08843999,0.0002706,53.2179,186.768,41.5605,318.5593,0.00014588,2.034e-05,0.0,0 STARLINK-4186,1 52880U 22062BC  23003.53036013  .00002034  00000-0  14588-3 0  9992,2 52880  53.2179 186.7680 0002706  41.5605 318.5593 15.08843999 30771,6917.868,95.437,541.605,537.861,0.0
52880.0,STARLINK-4186,PAYLOAD,2023-01-04 04:37:35,15.08833723,0.0002731999999999,53.2177,183.7942,41.1989,318.9208,1.3994e-05,-6.6e-07,0.0,0 STARLINK-4186,1 52880U 22062BC  23004.19277171 -.00000066  00000-0  13994-4 0  9992,2 52880  53.2177 183.7942 0002732  41.1989 318.9208 15.08833723 31364,6917.9,95.438,541.655,537.875,0.0
52880.0,STARLINK-4186,PAYLOAD,2023-01-04 18:56:02,15.08845075,0.0002763,53.2177,181.1176,41.6792,318.441,6.493800000000001e-05,7.45e-06,0.0,0 STARLINK-4186,1 52880U 22062BC  23004.78892315  .00000745  00000-0  64938-4 0  9997,2 52880  53.2177 181.1176 0002763  41.6792 318.4410 15.08845075 31459,6917.865,95.437,541.641,537.818,0.0
52880.0,STARLINK-4186,PAYLOAD,2023-01-05 04:28:23,15.08827866,0.0003318,53.2179,179.3322,49.1383,310.9897,-8.7474e-05,-1.6800000000000002e-05,0.0,0 STARLINK-4186,1 52880U 22062BC  23005.18638024 -.00001680  00000-0 -87474-4 0  9998,2 52880  53.2179 179.3322 0003318  49.1383 310.9897 15.08827866 31510,6917.917,95.438,542.078,537.487,0.0
52880.0,STARLINK-4186,PAYLOAD,2023-01-05 14:00:42,15.088277,0.0002628,53.2188,177.5493,41.7076,318.4116,-9.4059e-05,-1.785e-05,0.0,0 STARLINK-4186,1 52880U 22062BC  23005.58381978 -.00001785  00000-0 -94059-4 0  9998,2 52880  53.2188 177.5493 0002628  41.7076 318.4116 15.08827700 31085,6917.918000000002,95.438,541.601,537.965,0.0
52880.0,STARLINK-4186,PAYLOAD,2023-01-06 05:54:33,15.08835269,0.0002694,53.2181,174.5764,45.7513,314.37,4.5305e-05,4.33e-06,0.0,0 STARLINK-4186,1 52880U 22062BC  23006.24621625  .00000433  00000-0  45305-4 0  9995,2 52880  53.2181 174.5764 0002694  45.7513 314.3700 15.08835269 31677,6917.895,95.438,541.624,537.896,0.0
52880.0,STARLINK-4186,PAYLOAD,2023-01-06 20:13:00,15.08843196,0.0002716,53.2168,171.9,46.8542,313.2677,0.00016725,2.375e-05,0.0,0 STARLINK-4186,1 52880U 22062BC  23006.84237263  .00002375  00000-0  16725-3 0  9992,2 52880  53.2168 171.9000 0002716  46.8542 313.2677 15.08843196 31270,6917.871,95.437,541.615,537.857,0.0
52880.0,STARLINK-4186,PAYLOAD,2023-01-07 05:45:20,15.08838785,0.0002792,53.2165,170.1159,49.6475,310.4761,0.00013591,1.875e-05,0.0,0 STARLINK-4186,1 52880U 22062BC  23007.23981691  .00001875  00000-0  13591-3 0  9999,2 52880  53.2165 170.1159 0002792  49.6475 310.4761 15.08838785 31331,6917.884,95.438,541.681,537.818,0.0
52880.0,STARLINK-4186,PAYLOAD,2023-01-07 10:31:29,15.08833867,0.0002735,53.2168,169.2239,50.0443,310.0789,0.00020344,2.95e-05,0.0,0 STARLINK-4186,1 52880U 22062BC  23007.43854080  .00002950  00000-0  20344-3 0  9991,2 52880  53.2168 169.2239 0002735  50.0443 310.0789 15.08833867 31859,6917.899,95.438,541.656,537.872,0.0
52880.0,STARLINK-4186,PAYLOAD,2023-01-07 20:03:48,15.08843354,0.0002723999999999,53.2168,167.4396,46.7289,313.393,0.0002241,3.28e-05,0.0,0 STARLINK-4186,1 52880U 22062BC  23007.83597704  .00003280  00000-0  22410-3 0  9995,2 52880  53.2168 167.4396 0002724  46.7289 313.3930 15.08843354 31420,6917.87,95.437,541.62,537.851,0.0
52880.0,STARLINK-4186,PAYLOAD,2023-01-08 11:57:39,15.08841022,0.0002722,53.2176,164.4661,53.1857,306.9384,7.229300000000001e-05,8.62e-06,0.0,0 STARLINK-4186,1 52880U 22062BC  23008.49837887  .00000862  00000-0  72293-4 0  9995,2 52880  53.2176 164.4661 0002722  53.1857 306.9384 15.08841022 32019,6917.877,95.437,541.625,537.859,0.0
52880.0,STARLINK-4186,PAYLOAD,2023-01-08 19:54:35,15.08845764,0.0002638,53.2176,162.9792,57.0109,303.1136,9.6476e-05,1.248e-05,0.0,0 STARLINK-4186,1 52880U 22062BC  23008.82957429  .00001248  00000-0  96476-4 0  9995,2 52880  53.2176 162.9792 0002638  57.0109 303.1136 15.08845764 31577,6917.863,95.437,541.553,537.903,0.0
52880.0,STARLINK-4186,PAYLOAD,2023-01-09 11:48:27,15.08836272,0.0002634,53.2177,160.0057,55.9669,304.1573,4.6541e-05,4.52e-06,0.0,0 STARLINK-4186,1 52880U 22062BC  23009.49198177  .00000452  00000-0  46541-4 0  9990,2 52880  53.2177 160.0057 0002634  55.9669 304.1573 15.08836272 31676,6917.892,95.438,541.5790000000002,537.935,0.0
52880.0,STARLINK-4186,PAYLOAD,2023-01-09 16:34:36,15.08840449,0.0002628,53.2177,159.1136,56.3458,303.7785,7.8263e-05,9.57e-06,0.0,0 STARLINK-4186,1 52880U 22062BC  23009.69069845  .00000957  00000-0  78263-4 0  9997,2 52880  53.2177 159.1136 0002628  56.3458 303.7785 15.08840449 32196,6917.879,95.438,541.562,537.9259999999998,0.0
52880.0,STARLINK-4186,PAYLOAD,2023-01-10 13:14:37,15.08842948,0.0002614,53.2177,155.2485,58.2031,301.9215,4.6397e-05,4.5e-06,0.0,0 STARLINK-4186,1 52880U 22062BC  23010.55181751  .00000450  00000-0  46397-4 0  9996,2 52880  53.2177 155.2485 0002614  58.2031 301.9215 15.08842948 31837,6917.871,95.437,541.545,537.928,0.0
52880.0,STARLINK-4186,PAYLOAD,2023-01-10 16:25:23,15.08843575,0.0002631999999999,53.2178,154.6542,56.5087,303.6156,0.00010966,1.457e-05,0.0,0 STARLINK-4186,1 52880U 22062BC  23010.68429566  .00001457  00000-0  10966-3 0  9999,2 52880  53.2178 154.6542 0002632  56.5087 303.6156 15.08843575 31859,6917.8690000000015,95.437,541.555,537.914,0.0
52880.0,STARLINK-4186,PAYLOAD,2023-01-11 13:05:24,15.0883261,0.0002685,53.2178,150.7897,56.1189,304.0058,4.5734e-05,4.39e-06,0.0,0 STARLINK-4186,1 52880U 22062BC  23011.54542715  .00000439  00000-0  45734-4 0  9998,2 52880  53.2178 150.7897 0002685  56.1189 304.0058 15.08832610 32479,6917.903,95.438,541.625,537.911,0.0
52880.0,STARLINK-4186,PAYLOAD,2023-01-11 19:26:56,15.08844392,0.0002634,53.2179,149.5992,57.5807,302.5439,0.00011679,1.571e-05,0.0,0 STARLINK-4186,1 52880U 22062BC  23011.81037891  .00001571  00000-0  11679-3 0  9990,2 52880  53.2179 149.5992 0002634  57.5807 302.5439 15.08844392 32025,6917.866999999998,95.437,541.554,537.91,0.0
52880.0,STARLINK-4186,PAYLOAD,2023-01-12 11:20:48,15.08839732,0.0002492,53.2172,146.6265,62.4405,297.684,2.9594e-05,1.83e-06,0.0,0 STARLINK-4186,1 52880U 22062BC  23012.47278441  .00000183  00000-0  29594-4 0  9995,2 52880  53.2172 146.6265 0002492  62.4405 297.6840 15.08839732 32617,6917.880999999999,95.438,541.47,538.0219999999998,0.0
52880.0,STARLINK-4186,PAYLOAD,2023-01-13 12:46:58,15.08841354,0.0002692,53.217,141.8672,69.7525,290.3757,0.00010952,1.455e-05,0.0,0 STARLINK-4186,1 52880U 22062BC  23013.53262340  .00001455  00000-0  10952-3 0  9994,2 52880  53.2170 141.8672 0002692  69.7525 290.3757 15.08841354 32776,6917.876,95.437,541.604,537.879,0.0
